STARLINK-31441          
1 60091U 24117A   25126.09645955  .00001565  00000+0  64989-4 0  9996
2 60091  53.1614  25.7890 0001178  99.6528 260.4605 15.30189341 49545
STARLINK-32044          
1 60092U 24117B   25126.14173928  .00001558  00000+0  64768-4 0  9996
2 60092  53.1619  25.3570 0001489  60.2803 299.8346 15.30173258 49602
STARLINK-31239          
1 60093U 24117C   25126.12917551  .00003495  00000+0  13008-3 0  9995
2 60093  53.1602  25.9948 0001276  69.8385 290.2753 15.30199854 49746
STARLINK-32007          
1 60094U 24117D   25125.46230313  .00001649  00000+0  67797-4 0  9990
2 60094  53.1616  28.9408 0001409  86.2014 273.9148 15.30192829 49691
STARLINK-32028          
1 60095U 24117E   25125.45281126  .00005870  00000+0  21035-3 0  9992
2 60095  53.1621  28.8816 0001376  90.9780 269.1378 15.30170301 49698
STARLINK-32016          
1 60096U 24117F   25125.86368642  .00003841  00000+0  14178-3 0  9993
2 60096  53.1615  27.1788 0001096  85.8520 274.2606 15.30194131 49751
STARLINK-32003          
1 60097U 24117G   25126.09223526  .00002055  00000+0  81514-4 0  9996
2 60097  53.1616  25.7595 0001027  98.2016 261.9102 15.30193198 49762
STARLINK-32026          
1 60098U 24117H   25126.10173396 -.00001890  00000+0 -51717-4 0  9998
2 60098  53.1610  25.8227 0000563 339.5036  20.5942 15.30196081 49548
STARLINK-31732          
1 60099U 24117J   25125.87308235 -.00001175  00000+0 -27543-4 0  9990
2 60099  53.1606  26.5235 0001257  61.2467 298.8660 15.30193361 49713
STARLINK-31996          
1 60100U 24117K   25126.01743767  .00000428  00000+0  26597-4 0  9999
2 60100  53.1609  26.0033 0001200  63.7803 296.3321 15.30177568 49638
STARLINK-31999          
1 60101U 24117L   25125.99749581  .00000583  00000+0  31842-4 0  9997
2 60101  53.1612  26.5922 0001277  83.7292 276.3854 15.30175933 49726
STARLINK-31954          
1 60102U 24117M   25125.14205630  .00002353  00000+0  91533-4 0  9997
2 60102  53.1610  30.4948 0001370  64.6140 295.5002 15.30203582 49642
STARLINK-32013          
1 60103U 24117N   25125.46545750  .00002335  00000+0  90916-4 0  9997
2 60103  53.1619  28.9601 0001481  89.2839 270.8332 15.30212783 49691
STARLINK-32009          
1 60104U 24117P   25126.13129321 -.00001390  00000+0 -34833-4 0  9993
2 60104  53.1608  25.9803 0001225  74.7623 285.3513 15.30180732 49800
