[
  {
    "OBJECT_NAME": "STARLINK-31441",
    "OBJECT_ID": "2024-117A",
    "EPOCH": "2025-05-06T02:18:54.105120",
    "MEAN_MOTION": 15.30189341,
    "ECCENTRICITY": 0.0001178,
    "INCLINATION": 53.1614,
    "RA_OF_ASC_NODE": 25.789,
    "ARG_OF_PERICENTER": 99.6528,
    "MEAN_ANOMALY": 260.4605,
    "EPHEMERIS_TYPE": 0,
    "CLASSIFICATION_TYPE": "U",
    "NORAD_CAT_ID": 60091,
    "ELEMENT_SET_NO": 999,
    "REV_AT_EPOCH": 4954,
    "BSTAR": 6.4989e-05,
    "MEAN_MOTION_DOT": 1.565e-05,
    "MEAN_MOTION_DDOT": 0
  },
  {
    "OBJECT_NAME": "STARLINK-32044",
    "OBJECT_ID": "2024-117B",
    "EPOCH": "2025-05-06T03:24:06.273792",
    "MEAN_MOTION": 15.30173258,
    "ECCENTRICITY": 0.0001489,
    "INCLINATION": 53.1619,
    "RA_OF_ASC_NODE": 25.357,
    "ARG_OF_PERICENTER": 60.2803,
    "MEAN_ANOMALY": 299.8346,
    "EPHEMERIS_TYPE": 0,
    "CLASSIFICATION_TYPE": "U",
    "NORAD_CAT_ID": 60092,
    "ELEMENT_SET_NO": 999,
    "REV_AT_EPOCH": 4960,
    "BSTAR": 6.4768e-05,
    "MEAN_MOTION_DOT": 1.558e-05,
    "MEAN_MOTION_DDOT": 0
  },
  {
    "OBJECT_NAME": "STARLINK-31239",
    "OBJECT_ID": "2024-117C",
    "EPOCH": "2025-05-06T03:06:00.764064",
    "MEAN_MOTION": 15.30199854,
    "ECCENTRICITY": 0.0001276,
    "INCLINATION": 53.1602,
    "RA_OF_ASC_NODE": 25.9948,
    "ARG_OF_PERICENTER": 69.8385,
    "MEAN_ANOMALY": 290.2753,
    "EPHEMERIS_TYPE": 0,
    "CLASSIFICATION_TYPE": "U",
    "NORAD_CAT_ID": 60093,
    "ELEMENT_SET_NO": 999,
    "REV_AT_EPOCH": 4974,
    "BSTAR": 0.00013008,
    "MEAN_MOTION_DOT": 3.495e-05,
    "MEAN_MOTION_DDOT": 0
  },
  {
    "OBJECT_NAME": "STARLINK-32007",
    "OBJECT_ID": "2024-117D",
    "EPOCH": "2025-05-05T11:05:42.990432",
    "MEAN_MOTION": 15.30192829,
    "ECCENTRICITY": 0.0001409,
    "INCLINATION": 53.1616,
    "RA_OF_ASC_NODE": 28.9408,
    "ARG_OF_PERICENTER": 86.2014,
    "MEAN_ANOMALY": 273.9148,
    "EPHEMERIS_TYPE": 0,
    "CLASSIFICATION_TYPE": "U",
    "NORAD_CAT_ID": 60094,
    "ELEMENT_SET_NO": 999,
    "REV_AT_EPOCH": 4969,
    "BSTAR": 6.7797e-05,
    "MEAN_MOTION_DOT": 1.649e-05,
    "MEAN_MOTION_DDOT": 0
  },
  {
    "OBJECT_NAME": "STARLINK-32028",
    "OBJECT_ID": "2024-117E",
    "EPOCH": "2025-05-05T10:52:02.892864",
    "MEAN_MOTION": 15.30170301,
    "ECCENTRICITY": 0.0001376,
    "INCLINATION": 53.1621,
    "RA_OF_ASC_NODE": 28.8816,
    "ARG_OF_PERICENTER": 90.978,
    "MEAN_ANOMALY": 269.1378,
    "EPHEMERIS_TYPE": 0,
    "CLASSIFICATION_TYPE": "U",
    "NORAD_CAT_ID": 60095,
    "ELEMENT_SET_NO": 999,
    "REV_AT_EPOCH": 4969,
    "BSTAR": 0.00021035,
    "MEAN_MOTION_DOT": 5.87e-05,
    "MEAN_MOTION_DDOT": 0
  },
  {
    "OBJECT_NAME": "STARLINK-32016",
    "OBJECT_ID": "2024-117F",
    "EPOCH": "2025-05-05T20:43:42.506688",
    "MEAN_MOTION": 15.30194131,
    "ECCENTRICITY": 0.0001096,
    "INCLINATION": 53.1615,
    "RA_OF_ASC_NODE": 27.1788,
    "ARG_OF_PERICENTER": 85.852,
    "MEAN_ANOMALY": 274.2606,
    "EPHEMERIS_TYPE": 0,
    "CLASSIFICATION_TYPE": "U",
    "NORAD_CAT_ID": 60096,
    "ELEMENT_SET_NO": 999,
    "REV_AT_EPOCH": 4975,
    "BSTAR": 0.00014178,
    "MEAN_MOTION_DOT": 3.841e-05,
    "MEAN_MOTION_DDOT": 0
  },
  {
    "OBJECT_NAME": "STARLINK-32003",
    "OBJECT_ID": "2024-117G",
    "EPOCH": "2025-05-06T02:12:49.126464",
    "MEAN_MOTION": 15.30193198,
    "ECCENTRICITY": 0.0001027,
    "INCLINATION": 53.1616,
    "RA_OF_ASC_NODE": 25.7595,
    "ARG_OF_PERICENTER": 98.2016,
    "MEAN_ANOMALY": 261.9102,
    "EPHEMERIS_TYPE": 0,
    "CLASSIFICATION_TYPE": "U",
    "NORAD_CAT_ID": 60097,
    "ELEMENT_SET_NO": 999,
    "REV_AT_EPOCH": 4976,
    "BSTAR": 8.1514e-05,
    "MEAN_MOTION_DOT": 2.055e-05,
    "MEAN_MOTION_DDOT": 0
  },
  {
    "OBJECT_NAME": "STARLINK-32026",
    "OBJECT_ID": "2024-117H",
    "EPOCH": "2025-05-06T02:26:29.814144",
    "MEAN_MOTION": 15.30196081,
    "ECCENTRICITY": 5.63e-05,
    "INCLINATION": 53.161,
    "RA_OF_ASC_NODE": 25.8227,
    "ARG_OF_PERICENTER": 339.5036,
    "MEAN_ANOMALY": 20.5942,
    "EPHEMERIS_TYPE": 0,
    "CLASSIFICATION_TYPE": "U",
    "NORAD_CAT_ID": 60098,
    "ELEMENT_SET_NO": 999,
    "REV_AT_EPOCH": 4954,
    "BSTAR": -5.1717e-05,
    "MEAN_MOTION_DOT": -1.89e-05,
    "MEAN_MOTION_DDOT": 0
  },
  {
    "OBJECT_NAME": "STARLINK-31732",
    "OBJECT_ID": "2024-117J",
    "EPOCH": "2025-05-05T20:57:14.315040",
    "MEAN_MOTION": 15.30193361,
    "ECCENTRICITY": 0.0001257,
    "INCLINATION": 53.1606,
    "RA_OF_ASC_NODE": 26.5235,
    "ARG_OF_PERICENTER": 61.2467,
    "MEAN_ANOMALY": 298.866,
    "EPHEMERIS_TYPE": 0,
    "CLASSIFICATION_TYPE": "U",
    "NORAD_CAT_ID": 60099,
    "ELEMENT_SET_NO": 999,
    "REV_AT_EPOCH": 4971,
    "BSTAR": -2.7543e-05,
    "MEAN_MOTION_DOT": -1.175e-05,
    "MEAN_MOTION_DDOT": 0
  },
  {
    "OBJECT_NAME": "STARLINK-31996",
    "OBJECT_ID": "2024-117K",
    "EPOCH": "2025-05-06T00:25:06.614688",
    "MEAN_MOTION": 15.30177568,
    "ECCENTRICITY": 0.00012,
    "INCLINATION": 53.1609,
    "RA_OF_ASC_NODE": 26.0033,
    "ARG_OF_PERICENTER": 63.7803,
    "MEAN_ANOMALY": 296.3321,
    "EPHEMERIS_TYPE": 0,
    "CLASSIFICATION_TYPE": "U",
    "NORAD_CAT_ID": 60100,
    "ELEMENT_SET_NO": 999,
    "REV_AT_EPOCH": 4963,
    "BSTAR": 2.6597e-05,
    "MEAN_MOTION_DOT": 4.28e-06,
    "MEAN_MOTION_DDOT": 0
  },
  {
    "OBJECT_NAME": "STARLINK-31999",
    "OBJECT_ID": "2024-117L",
    "EPOCH": "2025-05-05T23:56:23.637984",
    "MEAN_MOTION": 15.30175933,
    "ECCENTRICITY": 0.0001277,
    "INCLINATION": 53.1612,
    "RA_OF_ASC_NODE": 26.5922,
    "ARG_OF_PERICENTER": 83.7292,
    "MEAN_ANOMALY": 276.3854,
    "EPHEMERIS_TYPE": 0,
    "CLASSIFICATION_TYPE": "U",
    "NORAD_CAT_ID": 60101,
    "ELEMENT_SET_NO": 999,
    "REV_AT_EPOCH": 4972,
    "BSTAR": 3.1842e-05,
    "MEAN_MOTION_DOT": 5.83e-06,
    "MEAN_MOTION_DDOT": 0
  },
  {
    "OBJECT_NAME": "STARLINK-31954",
    "OBJECT_ID": "2024-117M",
    "EPOCH": "2025-05-05T03:24:33.664320",
    "MEAN_MOTION": 15.30203582,
    "ECCENTRICITY": 0.000137,
    "INCLINATION": 53.161,
    "RA_OF_ASC_NODE": 30.4948,
    "ARG_OF_PERICENTER": 64.614,
    "MEAN_ANOMALY": 295.5002,
    "EPHEMERIS_TYPE": 0,
    "CLASSIFICATION_TYPE": "U",
    "NORAD_CAT_ID": 60102,
    "ELEMENT_SET_NO": 999,
    "REV_AT_EPOCH": 4964,
    "BSTAR": 9.1533e-05,
    "MEAN_MOTION_DOT": 2.353e-05,
    "MEAN_MOTION_DDOT": 0
  },
  {
    "OBJECT_NAME": "STARLINK-32013",
    "OBJECT_ID": "2024-117N",
    "EPOCH": "2025-05-05T11:10:15.528000",
    "MEAN_MOTION": 15.30212783,
    "ECCENTRICITY": 0.0001481,
    "INCLINATION": 53.1619,
    "RA_OF_ASC_NODE": 28.9601,
    "ARG_OF_PERICENTER": 89.2839,
    "MEAN_ANOMALY": 270.8332,
    "EPHEMERIS_TYPE": 0,
    "CLASSIFICATION_TYPE": "U",
    "NORAD_CAT_ID": 60103,
    "ELEMENT_SET_NO": 999,
    "REV_AT_EPOCH": 4969,
    "BSTAR": 9.0916e-05,
    "MEAN_MOTION_DOT": 2.335e-05,
    "MEAN_MOTION_DDOT": 0
  },
  {
    "OBJECT_NAME": "STARLINK-32009",
    "OBJECT_ID": "2024-117P",
    "EPOCH": "2025-05-06T03:09:03.733344",
    "MEAN_MOTION": 15.30180732,
    "ECCENTRICITY": 0.0001225,
    "INCLINATION": 53.1608,
    "RA_OF_ASC_NODE": 25.9803,
    "ARG_OF_PERICENTER": 74.7623,
    "MEAN_ANOMALY": 285.3513,
    "EPHEMERIS_TYPE": 0,
    "CLASSIFICATION_TYPE": "U",
    "NORAD_CAT_ID": 60104,
    "ELEMENT_SET_NO": 999,
    "REV_AT_EPOCH": 4980,
    "BSTAR": -3.4833e-05,
    "MEAN_MOTION_DOT": -1.39e-05,
    "MEAN_MOTION_DDOT": 0
  }
]